NORAD_CAT_ID,OBJECT_NAME,OBJECT_TYPE,EPOCH,MEAN_MOTION,ECCENTRICITY,INCLINATION,RA_OF_ASC_NODE,ARG_OF_PERICENTER,MEAN_ANOMALY,BSTAR,MEAN_MOTION_DOT,MEAN_MOTION_DDOT,TLE_LINE0,TLE_LINE1,TLE_LINE2,SEMIMAJOR_AXIS,PERIOD,APOGEE,PERIGEE,DECAYED
53246.0,STARLINK-4131,PAYLOAD,2022-08-08 12:48:24,15.73278652,0.0001665,53.2204,329.12,342.922,17.1744,0.00042307,0.00059377,0.0,0 STARLINK-4131,1 53246U 22086E   22220.53361232  .00059377  00000-0  42307-3 0  9991,2 53246  53.2204 329.1200 0001665 342.9220  17.1744 15.73278652  2388,6727.670999999999,91.529,350.656,348.416,0.0
53246.0,STARLINK-4131,PAYLOAD,2022-08-08 14:00:01,15.73239141,0.0001756,53.22,328.8753,356.4387,285.5546,-6.951699999999999e-05,-0.00010382,0.0,0 STARLINK-4131,1 53246U 22086E   22220.58335648 -.00010382  00000-0 -69517-4 0  9996,2 53246  53.2200 328.8753 0001756 356.4387 285.5546 15.73239141  2996,6727.784000000002,91.531,350.83,348.467,0.0
53246.0,STARLINK-4131,PAYLOAD,2022-08-08 17:22:50,15.7326866,0.0001902,53.2205,328.1772,350.1504,9.9479,0.00027999,0.00038973,0.0,0 STARLINK-4131,1 53246U 22086E   22220.72419266  .00038973  00000-0  27999-3 0  9992,2 53246  53.2205 328.1772 0001902 350.1504   9.9479 15.73268660  3015,6727.699000000001,91.529,350.844,348.285,0.0
53246.0,STARLINK-4131,PAYLOAD,2022-08-08 22:00:00,15.73281342,0.0001868,53.2202,327.2253,4.2722,6.645,-0.00094757,-0.00132008,0.0,0 STARLINK-4131,1 53246U 22086E   22220.91667824 -.00132008  00000-0 -94757-3 0  9990,2 53246  53.2202 327.2253 0001868   4.2722   6.6450 15.73281342  1301,6727.663000000001,91.528,350.785,348.272,0.0
53246.0,STARLINK-4131,PAYLOAD,2022-08-09 04:00:00,15.73160901,0.0001753,53.2205,325.9867,15.313,332.3456,-4.136100000000001e-05,-6.411e-05,0.0,0 STARLINK-4131,1 53246U 22086E   22221.16667824 -.00006411  00000-0 -41361-4 0  9990,2 53246  53.2205 325.9867 0001753  15.3130 332.3456 15.73160901  3088,6728.007,91.535,351.051,348.69199999999995,0.0
53246.0,STARLINK-4131,PAYLOAD,2022-08-09 14:00:01,15.73178802,0.0002144,53.2207,323.927,22.2585,166.4802,-0.00047204,-0.00066296,0.0,0 STARLINK-4131,1 53246U 22086E   22221.58334491 -.00066296  00000-0 -47204-3 0  9995,2 53246  53.2207 323.9270 0002144  22.2585 166.4802 15.73178802  1305,6727.956,91.534,351.26300000000015,348.37800000000016,0.0
53246.0,STARLINK-4131,PAYLOAD,2022-08-09 22:00:00,15.73153204,0.0002123,53.2203,322.2772,20.7372,256.8826,-0.0007292,-0.00101542,0.0,0 STARLINK-4131,1 53246U 22086E   22221.91667824 -.00101542  00000-0 -72920-3 0  9998,2 53246  53.2203 322.2772 0002123  20.7372 256.8826 15.73153204  3204,6728.029,91.536,351.32199999999995,348.465,0.0
53246.0,STARLINK-4131,PAYLOAD,2022-08-10 06:00:00,15.73075608,0.000195,53.2202,320.627,23.3158,343.13,0.00065634,0.00092017,0.0,0 STARLINK-4131,1 53246U 22086E   22222.25001157  .00092017  00000-0  65634-3 0  9995,2 53246  53.2202 320.6270 0001950  23.3158 343.1300 15.73075608  3259,6728.25,91.54,351.427,348.80300000000005,0.0
53246.0,STARLINK-4131,PAYLOAD,2022-08-10 14:00:01,15.73123338,0.0002331999999999,53.2194,318.9790000000001,23.4695,71.7815,0.00083847,0.00118341,0.0,0 STARLINK-4131,1 53246U 22086E   22222.58334491  .00118341  00000-0  83847-3 0  9996,2 53246  53.2194 318.9790 0002332  23.4695  71.7815 15.73123338  1301,6728.114000000001,91.538,351.548,348.41,0.0
53246.0,STARLINK-4131,PAYLOAD,2022-08-10 22:00:00,15.73373395,0.0002251999999999,53.2182,317.3253,25.0768,159.0331,-0.0028822,-0.00389915,0.0,0 STARLINK-4131,1 53246U 22086E   22222.91667824 -.00389915  00000-0 -28822-2 0  9992,2 53246  53.2182 317.3253 0002252  25.0768 159.0331 15.73373395  1308,6727.401,91.523,350.781,347.751,0.0
53246.0,STARLINK-4131,PAYLOAD,2022-08-11 06:00:02,15.73228005,0.0002097,53.2176,315.6702,20.8671,252.2674,-0.0095474,-0.01190431,0.0,0 STARLINK-4131,1 53246U 22086E   22223.25002315 -.01190431  00000-0 -95474-2 0  9999,2 53246  53.2176 315.6702 0002097  20.8671 252.2674 15.73228005  3411,6727.815,91.532,351.091,348.27,0.0
53246.0,STARLINK-4131,PAYLOAD,2022-08-11 14:00:01,15.7236609,0.0002343,53.2176,314.0211,16.0173,345.4767,-0.0091845,-0.01112722,0.0,0 STARLINK-4131,1 53246U 22086E   22223.58334491 -.01112722  00000-0 -91845-2 0  9993,2 53246  53.2176 314.0211 0002343  16.0173 345.4767 15.72366090  1307,6730.274,91.582,353.716,350.56199999999984,0.0
53246.0,STARLINK-4131,PAYLOAD,2022-08-11 22:00:00,15.71560976,0.000241,53.2174,312.3717,16.3844,72.5437,-0.0094679,-0.01108737,0.0,0 STARLINK-4131,1 53246U 22086E   22223.91667824 -.01108737  00000-0 -94679-2 0  9998,2 53246  53.2174 312.3717 0002410  16.3844  72.5437 15.71560976  3526,6732.571999999999,91.629,356.06,352.815,0.0
53246.0,STARLINK-4131,PAYLOAD,2022-08-12 14:00:01,15.69943288,0.0002658999999999,53.2174,309.0823,298.0455,322.8563,-0.0099316,-0.01088578,0.0,0 STARLINK-4131,1 53246U 22086E   22224.58334491 -.01088578  00000-0 -99316-2 0  9996,2 53246  53.2174 309.0823 0002659 298.0455 322.8563 15.69943288  1302,6737.196,91.723,360.853,357.27,0.0
53246.0,STARLINK-4131,PAYLOAD,2022-08-12 20:00:01,15.69348596,4.92e-05,53.2172,307.8498,315.7875,278.6727,-0.010328,-0.01101643,0.0,0 STARLINK-4131,1 53246U 22086E   22224.83335648 -.01101643  00000-0 -10328-1 0  9993,2 53246  53.2172 307.8498 0000492 315.7875 278.6727 15.69348596  3662,6738.898,91.758,361.095,360.432,0.0
53246.0,STARLINK-4131,PAYLOAD,2022-08-12 22:00:01,15.69148093,3.05e-05,53.2174,307.4386,11.1728,334.3311,-0.010397,-0.01099898,0.0,0 STARLINK-4131,1 53246U 22086E   22224.91668981 -.01099898  00000-0 -10397-1 0  9995,2 53246  53.2174 307.4386 0000305  11.1728 334.3311 15.69148093  1301,6739.472,91.77,361.543,361.132,0.0
53246.0,STARLINK-4131,PAYLOAD,2022-08-13 14:00:01,15.67545751,0.0001315999999999,53.2176,304.161,63.9044,87.713,-0.011161,-0.01104777,0.0,0 STARLINK-4131,1 53246U 22086E   22225.58334491 -.01104777  00000-0 -11161-1 0  9998,2 53246  53.2176 304.1610 0001316  63.9044  87.7130 15.67545751  3788,6744.064,91.863,366.817,365.042,0.0
53246.0,STARLINK-4131,PAYLOAD,2022-08-13 22:00:00,15.66745516,0.0001203,53.2176,302.5231,71.953,161.3082,-0.01159,-0.01127709,0.0,0 STARLINK-4131,1 53246U 22086E   22225.91667824 -.01127709  00000-0 -11590-1 0  9990,2 53246  53.2176 302.5231 0001203  71.9530 161.3082 15.66745516  1304,6746.36,91.91,369.037,367.414,0.0
53246.0,STARLINK-4131,PAYLOAD,2022-08-14 06:00:02,15.65940558,0.0001075,53.2177,300.888,76.3685,237.6372,-0.011918,-0.01122767,0.0,0 STARLINK-4131,1 53246U 22086E   22226.25002315 -.01122767  00000-0 -11918-1 0  9999,2 53246  53.2177 300.8880 0001075  76.3685 237.6372 15.65940558  3889,6748.672,91.958,371.263,369.812,0.0
53246.0,STARLINK-4131,PAYLOAD,2022-08-14 14:00:01,15.65138126,0.0001149,53.2176,299.2575,59.5395,334.1137,-0.012326,-0.01124104,0.0,0 STARLINK-4131,1 53246U 22086E   22226.58334491 -.01124104  00000-0 -12326-1 0  9999,2 53246  53.2176 299.2575 0001149  59.5395 334.1137 15.65138126  1300,6750.979,92.005,373.619,372.068,0.0
53246.0,STARLINK-4131,PAYLOAD,2022-08-14 22:00:00,15.64334488,0.0001200999999999,53.2174,297.6253,63.5128,48.8909,-0.0127099999999999,-0.01122568,0.0,0 STARLINK-4131,1 53246U 22086E   22226.91667824 -.01122568  00000-0 -12710-1 0  9994,2 53246  53.2174 297.6253 0001201  63.5128  48.8909 15.64334488  3992,6753.29,92.052,375.967,374.344,0.0
53246.0,STARLINK-4131,PAYLOAD,2022-08-15 14:00:01,15.62727719,0.0001190999999999,53.2175,294.3715,75.1299,191.8767,-0.0135129999999999,-0.01120048,0.0,0 STARLINK-4131,1 53246U 22086E   22227.58334491 -.01120048  00000-0 -13513-1 0  9992,2 53246  53.2175 294.3715 0001191  75.1299 191.8767 15.62727719  4090,6757.919,92.147,380.589,378.979,0.0
53246.0,STARLINK-4131,PAYLOAD,2022-08-15 22:00:00,15.6192669,0.0001094999999999,53.2175,292.7449,60.023,282.8389,-0.013992,-0.01123452,0.0,0 STARLINK-4131,1 53246U 22086E   22227.91667824 -.01123452  00000-0 -13992-1 0  9991,2 53246  53.2175 292.7449 0001095  60.0230 282.8389 15.61926690  1307,6760.229,92.194,382.834,381.354,0.0
53246.0,STARLINK-4131,PAYLOAD,2022-08-16 06:00:02,15.61122731,0.0001193999999999,53.2177,291.1218,57.3213,0.4958,-0.014402,-0.01120956,0.0,0 STARLINK-4131,1 53246U 22086E   22228.25002315 -.01120956  00000-0 -14402-1 0  9990,2 53246  53.2177 291.1218 0001194  57.3213   0.4958 15.61122731  4208,6762.55,92.241,385.222,383.607,0.0
53246.0,STARLINK-4131,PAYLOAD,2022-08-16 14:00:01,15.60316258,0.0001409,53.2176,289.5028,53.0366,78.6408,-0.014772,-0.01115054,0.0,0 STARLINK-4131,1 53246U 22086E   22228.58334491 -.01115054  00000-0 -14772-1 0  9992,2 53246  53.2176 289.5028 0001409  53.0366  78.6408 15.60316258  1301,6764.88,92.289,387.698,385.792,0.0
53246.0,STARLINK-4131,PAYLOAD,2022-08-16 22:00:00,15.59516662,0.000131,53.2176,287.882,62.7324,141.9052,-0.0153099999999999,-0.01120072,0.0,0 STARLINK-4131,1 53246U 22086E   22228.91667824 -.01120072  00000-0 -15310-1 0  9993,2 53246  53.2176 287.8820 0001310  62.7324 141.9052 15.59516662  1302,6767.191999999999,92.336,389.943,388.17,0.0
53246.0,STARLINK-4131,PAYLOAD,2022-08-17 14:00:01,15.5790937,0.0001072999999999,53.2173,284.6518,70.4778,277.185,-0.016231,-0.01117078,0.0,0 STARLINK-4131,1 53246U 22086E   22229.58334491 -.01117078  00000-0 -16231-1 0  9993,2 53246  53.2173 284.6518 0001073  70.4778 277.1850 15.57909370  4405,6771.846,92.432,394.437,392.984,0.0
53246.0,STARLINK-4131,PAYLOAD,2022-08-18 08:00:01,15.56113245,0.0001262,53.2172,281.0246,67.9785,165.9706,-0.017593,-0.01130357,0.0,0 STARLINK-4131,1 53246U 22086E   22230.33334491 -.01130357  00000-0 -17593-1 0  9995,2 53246  53.2172 281.0246 0001262  67.9785 165.9706 15.56113245  4526,6777.055,92.538,399.776,398.065,0.0
53246.0,STARLINK-4131,PAYLOAD,2022-08-18 14:00:01,15.5550315,0.000146,53.2172,279.8196,56.7388,138.2233,-0.0177599999999999,-0.01116898,0.0,0 STARLINK-4131,1 53246U 22086E   22230.58334491 -.01116898  00000-0 -17760-1 0  9992,2 53246  53.2172 279.8196 0001460  56.7388 138.2233 15.55503150  1308,6778.8269999999975,92.575,401.682,399.703,0.0
